{
  "type": "FeatureCollection",
  "features": [
    {
      "type": "Feature",
      "properties": {
        "norad_id": 29740,
        "name": "FENGYUN 1C DEB",
        "group": "fengyun-1c-debris",
        "lat": 52.04793479135213,
        "lon": 36.21273493500114,
        "alt_km": 1138.342973896435,
        "timestamp": "2025-12-21T07:34:34.788422+00:00",
        "meta_object_name": "FENGYUN 1C DEB",
        "meta_object_id": "1999-025AE",
        "meta_epoch": "2025-12-20T03:00:13.463712",
        "meta_mean_motion": 12.08327469,
        "meta_eccentricity": 0.09740841,
        "meta_inclination": 99.0446,
        "meta_ra_of_asc_node": 203.5791,
        "meta_arg_of_pericenter": 183.9419,
        "meta_mean_anomaly": 175.3525,
        "meta_ephemeris_type": 0,
        "meta_classification_type": "U",
        "meta_norad_cat_id": 29740,
        "meta_element_set_no": 999,
        "meta_rev_at_epoch": 83024,
        "meta_bstar": -0.0014442289,
        "meta_mean_motion_dot": -5.81e-06,
        "meta_mean_motion_ddot": 0,
        "tle_line1": "1 29740U 99025AE  25354.12515583 -.00000581  00000+0 -14442-2 0  9998",
        "tle_line2": "2 29740  99.0446 203.5791 0974084 183.9419 175.3525 12.08327469830247"
      },
      "geometry": {
        "type": "Point",
        "coordinates": [
          36.21273493500114,
          52.04793479135213
        ]
      }
    },
    {
      "type": "Feature",
      "properties": {
        "norad_id": 29741,
        "name": "FENGYUN 1C DEB",
        "group": "fengyun-1c-debris",
        "lat": 28.13032279147614,
        "lon": 52.16961425051091,
        "alt_km": 1797.5241715071616,
        "timestamp": "2025-12-21T07:34:34.788432+00:00",
        "meta_object_name": "FENGYUN 1C DEB",
        "meta_object_id": "1999-025AF",
        "meta_epoch": "2025-12-20T14:58:53.224896",
        "meta_mean_motion": 12.00968384,
        "meta_eccentricity": 0.1025674,
        "meta_inclination": 99.1737,
        "meta_ra_of_asc_node": 226.7189,
        "meta_arg_of_pericenter": 48.4346,
        "meta_mean_anomaly": 343.2238,
        "meta_ephemeris_type": 0,
        "meta_classification_type": "U",
        "meta_norad_cat_id": 29741,
        "meta_element_set_no": 999,
        "meta_rev_at_epoch": 52278,
        "meta_bstar": 0.0052388,
        "meta_mean_motion_dot": 2.04e-05,
        "meta_mean_motion_ddot": 0,
        "tle_line1": "1 29741U 99025AF  25354.62422714  .00002040  00000+0  52388-2 0  9998",
        "tle_line2": "2 29741  99.1737 226.7189 1025674  48.4346 343.2238 12.00968384522780"
      },
      "geometry": {
        "type": "Point",
        "coordinates": [
          52.16961425051091,
          28.13032279147614
        ]
      }
    },
    {
      "type": "Feature",
      "properties": {
        "norad_id": 29748,
        "name": "FENGYUN 1C DEB",
        "group": "fengyun-1c-debris",
        "lat": 72.75961576847473,
        "lon": 137.8050351191467,
        "alt_km": 1877.813965215647,
        "timestamp": "2025-12-21T07:34:34.788442+00:00",
        "meta_object_name": "FENGYUN 1C DEB",
        "meta_object_id": "1999-025AN",
        "meta_epoch": "2025-12-18T18:32:21.128928",
        "meta_mean_motion": 11.90388386,
        "meta_eccentricity": 0.08620111,
        "meta_inclination": 99.7832,
        "meta_ra_of_asc_node": 282.1412,
        "meta_arg_of_pericenter": 0.8877,
        "meta_mean_anomaly": 359.3487,
        "meta_ephemeris_type": 0,
        "meta_classification_type": "U",
        "meta_norad_cat_id": 29748,
        "meta_element_set_no": 999,
        "meta_rev_at_epoch": 78805,
        "meta_bstar": 0.10881389,
        "meta_mean_motion_dot": 0.00022252,
        "meta_mean_motion_ddot": 0,
        "tle_line1": "1 29748U 99025AN  25352.77246677  .00022252  00000+0  10881+0 0  9997",
        "tle_line2": "2 29748  99.7832 282.1412 0862011   0.8877 359.3487 11.90388386788052"
      },
      "geometry": {
        "type": "Point",
        "coordinates": [
          137.8050351191467,
          72.75961576847473
        ]
      }
    },
    {
      "type": "Feature",
      "properties": {
        "norad_id": 29750,
        "name": "FENGYUN 1C DEB",
        "group": "fengyun-1c-debris",
        "lat": -21.800856530301864,
        "lon": -159.33587676130233,
        "alt_km": 859.0049773115788,
        "timestamp": "2025-12-21T07:34:34.788451+00:00",
        "meta_object_name": "FENGYUN 1C DEB",
        "meta_object_id": "1999-025AQ",
        "meta_epoch": "2025-12-20T08:31:24.310272",
        "meta_mean_motion": 14.09650353,
        "meta_eccentricity": 0.00350469,
        "meta_inclination": 98.7538,
        "meta_ra_of_asc_node": 23.2636,
        "meta_arg_of_pericenter": 279.2753,
        "meta_mean_anomaly": 91.3043,
        "meta_ephemeris_type": 0,
        "meta_classification_type": "U",
        "meta_norad_cat_id": 29750,
        "meta_element_set_no": 999,
        "meta_rev_at_epoch": 97181,
        "meta_bstar": 0.0001979347,
        "meta_mean_motion_dot": 3.06e-06,
        "meta_mean_motion_ddot": 0,
        "tle_line1": "1 29750U 99025AQ  25354.35514248  .00000306  00000+0  19793-3 0  9999",
        "tle_line2": "2 29750  98.7538  23.2636 0035046 279.2753  91.3043 14.09650353971812"
      },
      "geometry": {
        "type": "Point",
        "coordinates": [
          -159.33587676130233,
          -21.800856530301864
        ]
      }
    },
    {
      "type": "Feature",
      "properties": {
        "norad_id": 29751,
        "name": "FENGYUN 1C DEB",
        "group": "fengyun-1c-debris",
        "lat": 48.306469367136636,
        "lon": 13.227636535110681,
        "alt_km": 781.2275289294012,
        "timestamp": "2025-12-21T07:34:34.788461+00:00",
        "meta_object_name": "FENGYUN 1C DEB",
        "meta_object_id": "1999-025AR",
        "meta_epoch": "2025-12-20T20:22:43.468608",
        "meta_mean_motion": 14.2363515,
        "meta_eccentricity": 0.009012,
        "meta_inclination": 98.5405,
        "meta_ra_of_asc_node": 22.4867,
        "meta_arg_of_pericenter": 115.8376,
        "meta_mean_anomaly": 64.3703,
        "meta_ephemeris_type": 0,
        "meta_classification_type": "U",
        "meta_norad_cat_id": 29751,
        "meta_element_set_no": 999,
        "meta_rev_at_epoch": 98188,
        "meta_bstar": 0.00011797215,
        "meta_mean_motion_dot": 2.39e-06,
        "meta_mean_motion_ddot": 0,
        "tle_line1": "1 29751U 99025AR  25354.84911422  .00000239  00000+0  11797-3 0  9990",
        "tle_line2": "2 29751  98.5405  22.4867 0090120 115.8376  64.3703 14.23635150981886"
      },
      "geometry": {
        "type": "Point",
        "coordinates": [
          13.227636535110681,
          48.306469367136636
        ]
      }
    },
    {
      "type": "Feature",
      "properties": {
        "norad_id": 29754,
        "name": "FENGYUN 1C DEB",
        "group": "fengyun-1c-debris",
        "lat": 45.70813102252244,
        "lon": 88.85074126230212,
        "alt_km": 849.7645611033549,
        "timestamp": "2025-12-21T07:34:34.788471+00:00",
        "meta_object_name": "FENGYUN 1C DEB",
        "meta_object_id": "1999-025AU",
        "meta_epoch": "2025-12-19T18:50:45.316608",
        "meta_mean_motion": 14.1917499,
        "meta_eccentricity": 0.00363225,
        "meta_inclination": 98.8847,
        "meta_ra_of_asc_node": 96.5432,
        "meta_arg_of_pericenter": 219.3286,
        "meta_mean_anomaly": 292.5929,
        "meta_ephemeris_type": 0,
        "meta_classification_type": "U",
        "meta_norad_cat_id": 29754,
        "meta_element_set_no": 999,
        "meta_rev_at_epoch": 97454,
        "meta_bstar": 0.00066478726,
        "meta_mean_motion_dot": 1.356e-05,
        "meta_mean_motion_ddot": 0,
        "tle_line1": "1 29754U 99025AU  25353.78524672  .00001356  00000+0  66479-3 0  9990",
        "tle_line2": "2 29754  98.8847  96.5432 0036322 219.3286 292.5929 14.19174990974541"
      },
      "geometry": {
        "type": "Point",
        "coordinates": [
          88.85074126230212,
          45.70813102252244
        ]
      }
    },
    {
      "type": "Feature",
      "properties": {
        "norad_id": 29758,
        "name": "FENGYUN 1C DEB",
        "group": "fengyun-1c-debris",
        "lat": -37.97870255532612,
        "lon": 118.32581428622365,
        "alt_km": 749.2893675558144,
        "timestamp": "2025-12-21T07:34:34.788481+00:00",
        "meta_object_name": "FENGYUN 1C DEB",
        "meta_object_id": "1999-025AY",
        "meta_epoch": "2025-12-20T19:08:06.406368",
        "meta_mean_motion": 14.41095323,
        "meta_eccentricity": 0.00219096,
        "meta_inclination": 98.8557,
        "meta_ra_of_asc_node": 110.7981,
        "meta_arg_of_pericenter": 282.9162,
        "meta_mean_anomaly": 230.687,
        "meta_ephemeris_type": 0,
        "meta_classification_type": "U",
        "meta_norad_cat_id": 29758,
        "meta_element_set_no": 999,
        "meta_rev_at_epoch": 97787,
        "meta_bstar": 0.0014818602,
        "meta_mean_motion_dot": 4.741e-05,
        "meta_mean_motion_ddot": 0,
        "tle_line1": "1 29758U 99025AY  25354.79729637  .00004741  00000+0  14819-2 0  9995",
        "tle_line2": "2 29758  98.8557 110.7981 0021909 282.9162 230.6870 14.41095323977879"
      },
      "geometry": {
        "type": "Point",
        "coordinates": [
          118.32581428622365,
          -37.97870255532612
        ]
      }
    }
  ]
}